SAR-LUPE 2              
1 31797U 07030A   26165.57047811  .00032910  00000+0  59613-3 0  9991
2 31797  98.1040 269.6787 0006263 143.8192 216.3482 15.49563467 56536
SAPPHIRE                
1 39088U 13009C   26165.51269166  .00000096  00000+0  48689-4 0  9990
2 39088  98.4258 345.0320 0010017 255.5290 104.4785 14.35239880696193
PRAETORIAN SDA_602      
1 65565U 25203A   26165.27754860  .00000052  00000+0  36034-4 0  9994
2 65565  81.3032  13.4643 0005617 192.1302 167.9720 13.84342433 38293
PRAETORIAN SDA_603      
1 65566U 25203B   26165.52021336  .00000044  00000+0  29399-4 0  9995
2 65566  81.3036  13.1547 0009238 195.1392 164.9489 13.83905268 38337
PRAETORIAN SDA_604      
1 65567U 25203C   26165.32124616  .00000059  00000+0  42916-4 0  9995
2 65567  81.3054  13.7463 0005109 199.7918 160.3040 13.83047186 38281
PRAETORIAN SDA_605      
1 65568U 25203D   26165.07040916  .00000050  00000+0  34330-4 0  9990
2 65568  81.3019  13.6441 0007916 191.6432 168.4542 13.83433926 38263
PRAETORIAN SDA_606      
1 65569U 25203E   26165.26987012  .00000067  00000+0  50158-4 0  9993
2 65569  81.3055  13.6801 0005564 188.9694 171.1364 13.83407093 38281
PRAETORIAN SDA_607      
1 65570U 25203F   26165.27975132  .00000114  00000+0  91808-4 0  9996
2 65570  81.3039  13.3388 0008484 195.5134 164.5764 13.84283778 38305
PRAETORIAN SDA_608      
1 65571U 25203G   26165.32847125  .00000052  00000+0  36496-4 0  9996
2 65571  81.3007  13.4542 0005625 198.9116 161.1833 13.83816480 38294
PRAETORIAN SDA_609      
1 65572U 25203H   26164.97277959  .00000157  00000+0  13016-3 0  9997
2 65572  81.3050  13.7672 0006501 194.2923 165.8051 13.84211998 38252
PRAETORIAN SDA_610      
1 65573U 25203J   26165.52520328  .00000048  00000+0  33016-4 0  9993
2 65573  81.3008  13.2302 0006299 195.8648 164.2313 13.83851644 38325
PRAETORIAN SDA_611      
1 65574U 25203K   26165.52494082  .00000393  00000+0  34709-3 0  9993
2 65574  81.3009  13.3946 0005191 202.3993 157.6937 13.83308819 38317
PRAETORIAN SDA_612      
1 65575U 25203L   26165.51787718  .00000160  00000+0  13082-3 0  9997
2 65575  81.3029  12.9935 0008958 194.3048 165.7857 13.85039054 38346
PRAETORIAN SDA_613      
1 65576U 25203M   26165.53064007  .00000049  00000+0  34109-4 0  9999
2 65576  81.3000  13.3836 0005414 191.2686 168.8350 13.82764788 38314
PRAETORIAN SDA_614      
1 65577U 25203N   26165.50654995  .00000030  00000+0  16432-4 0  9997
2 65577  81.3014  13.0810 0006846 191.2425 168.8580 13.84777827 38348
PRAETORIAN SDA_615      
1 65578U 25203P   26165.33823374  .00000172  00000+0  14263-3 0  9994
2 65578  81.3026  13.1991 0008744 193.0932 167.0000 13.84435941 38318
PRAETORIAN SDA_616      
1 65579U 25203Q   26165.52407485  .00000181  00000+0  15379-3 0  9996
2 65579  81.3064  13.5384 0005108 199.8846 160.2112 13.83267815 38311
PRAETORIAN SDA_617      
1 65580U 25203R   26165.32843743  .00000023  00000+0  97509-5 0  9999
2 65580  81.3037  13.5504 0007110 191.9853 168.1135 13.83149807 38292
PRAETORIAN SDA_618      
1 65581U 25203S   26165.52154088  .00000128  00000+0  10362-3 0  9995
2 65581  81.3020  12.9602 0009471 195.3577 164.7294 13.84668855 38344
PRAETORIAN SDA_619      
1 65582U 25203T   26165.33891323  .00000163  00000+0  13644-3 0  9990
2 65582  81.3044  13.4217 0007939 193.8973 166.1966 13.83806206 38939
PRAETORIAN SDA_620      
1 65583U 25203U   26165.51114436  .00000235  00000+0  20174-3 0  9990
2 65583  81.3029  13.2828 0007370 188.2043 171.8994 13.83618084 38326
PRAETORIAN SDA_621      
1 65584U 25203V   26165.34067751  .00000050  00000+0  34180-4 0  9997
2 65584  81.3022  13.3596 0007209 186.3876 173.7190 13.83800897 38309
PRAETORIAN SDA_601      
1 65585U 25203W   26165.52701785  .00000505  00000+0  45062-3 0  9995
2 65585  81.3039  13.4811 0005097 203.4121 156.6804 13.83167362 38312
